{
  "norad_id": 46355,
  "name": "STARLINK-1661",
  "history": [
    {
      "epoch": "2026-03-28T19:11:19.844736",
      "apogee_km": 472.96539126532844,
      "perigee_km": 472.5162477154827,
      "latitude_deg": -0.37788202798679565,
      "longitude_deg": -27.744616959942505,
      "semi_major_axis_km": 6850.877819490405,
      "eccentricity": 3.278e-05,
      "inclination_deg": 53.1593,
      "raan_deg": 282.1948,
      "arg_perigee_deg": 73.3104,
      "mean_anomaly_deg": 286.7933,
      "mean_motion_rev_day": 15.31029041
    }
  ]
}